NORAD_CAT_ID,OBJECT_NAME,OBJECT_TYPE,EPOCH,MEAN_MOTION,ECCENTRICITY,INCLINATION,RA_OF_ASC_NODE,ARG_OF_PERICENTER,MEAN_ANOMALY,BSTAR,MEAN_MOTION_DOT,MEAN_MOTION_DDOT,TLE_LINE0,TLE_LINE1,TLE_LINE2,SEMIMAJOR_AXIS,PERIOD,APOGEE,PERIGEE,DECAYED
53257.0,STARLINK-4144,PAYLOAD,2023-09-16 09:03:04,15.08868521,0.0001466,53.2148,298.2254,75.2718,284.8437,0.0010903,0.0001712,0.0,0 STARLINK-4144,1 53257U 22086R   23259.37713645  .00017120  00000-0  10903-2 0  9993,2 53257  53.2148 298.2254 0001466  75.2718 284.8437 15.08868521 64219,6917.793,95.436,540.672,538.644,0.0
53257.0,STARLINK-4144,PAYLOAD,2023-09-16 23:21:32,15.08858991,0.000154,53.2145,295.5491,74.52,285.5962,0.00031391,4.714e-05,0.0,0 STARLINK-4144,1 53257U 22086R   23259.97329159  .00004714  00000-0  31391-3 0  9992,2 53257  53.2145 295.5491 0001540  74.5200 285.5962 15.08858991 64301,6917.822,95.436,540.753,538.622,0.0
53257.0,STARLINK-4144,PAYLOAD,2023-09-17 08:53:51,15.08858111,0.0001547,53.215,293.7652,72.9645,287.1517,0.00031178,4.68e-05,0.0,0 STARLINK-4144,1 53257U 22086R   23260.37073016  .00004680  00000-0  31178-3 0  9991,2 53257  53.2150 293.7652 0001547  72.9645 287.1517 15.08858111 64542,6917.825,95.436,540.76,538.62,0.0
53257.0,STARLINK-4144,PAYLOAD,2023-09-17 23:12:18,15.08851764,0.0001595,53.2156,291.0908,92.0038,268.1136,7.6378e-05,9.28e-06,0.0,0 STARLINK-4144,1 53257U 22086R   23260.96688620  .00000928  00000-0  76378-4 0  9992,2 53257  53.2156 291.0908 0001595  92.0038 268.1136 15.08851764 64458,6917.844,95.437,540.813,538.606,0.0
53257.0,STARLINK-4144,PAYLOAD,2023-09-18 08:44:37,15.08849938,0.0001506,53.2167,289.3052,93.1468,266.9696,-2.6326e-05,-7.07e-06,0.0,0 STARLINK-4144,1 53257U 22086R   23261.36432711 -.00000707  00000-0 -26326-4 0  9990,2 53257  53.2167 289.3052 0001506  93.1468 266.9696 15.08849938 64694,6917.85,95.437,540.757,538.673,0.0
53257.0,STARLINK-4144,PAYLOAD,2023-09-19 18:07:43,15.08842207,0.0001653,53.2175,283.0597,89.2561,270.8621,2.7185e-05,1.45e-06,0.0,0 STARLINK-4144,1 53257U 22086R   23262.75536541  .00000145  00000-0  27185-4 0  9998,2 53257  53.2175 283.0597 0001653  89.2561 270.8621 15.08842207 64729,6917.874,95.437,540.882,538.595,0.0
53257.0,STARLINK-4144,PAYLOAD,2023-09-20 02:04:41,15.08813917,0.0001298,53.2163,281.5721,86.8771,273.2369,-0.00014706,-2.626e-05,0.0,0 STARLINK-4144,1 53257U 22086R   23263.08658879 -.00002626  00000-0 -14706-3 0  9996,2 53257  53.2163 281.5721 0001298  86.8771 273.2369 15.08813917 64776,6917.96,95.439,540.723,538.927,0.0
53257.0,STARLINK-4144,PAYLOAD,2023-09-20 06:50:51,15.08809054,0.0001341,53.2161,280.6789,80.6199,279.4945,-0.00017921,-3.136e-05,0.0,0 STARLINK-4144,1 53257U 22086R   23263.28531678 -.00003136  00000-0 -17921-3 0  9994,2 53257  53.2161 280.6789 0001341  80.6199 279.4945 15.08809054 64981,6917.975,95.44,540.768,538.912,0.0
53257.0,STARLINK-4144,PAYLOAD,2023-09-20 17:58:33,15.08815219,0.0001441,53.2174,278.5976,84.7881,275.3276,-0.00010837,-2.011e-05,0.0,0 STARLINK-4144,1 53257U 22086R   23263.74899821 -.00002011  00000-0 -10837-3 0  9992,2 53257  53.2174 278.5976 0001441  84.7881 275.3276 15.08815219 65054,6917.956,95.439,540.818,538.824,0.0
53257.0,STARLINK-4144,PAYLOAD,2023-09-21 00:20:06,15.08821918,0.0001268,53.2157,277.4055,74.8211,285.2921,-0.00015186,-2.703e-05,0.0,0 STARLINK-4144,1 53257U 22086R   23264.01395981 -.00002703  00000-0 -15186-3 0  9991,2 53257  53.2157 277.4055 0001268  74.8211 285.2921 15.08821918 64919,6917.936,95.439,540.678,538.923,0.0
53257.0,STARLINK-4144,PAYLOAD,2023-09-21 08:17:00,15.08837671,0.0001386,53.2155,275.9199,75.5198,284.5947,1.6377e-05,-2.7e-07,0.0,0 STARLINK-4144,1 53257U 22086R   23264.34514759 -.00000027  00000-0  16377-4 0  9993,2 53257  53.2155 275.9199 0001386  75.5198 284.5947 15.08837671 64960,6917.888,95.438,540.711,538.794,0.0
53257.0,STARLINK-4144,PAYLOAD,2023-09-21 17:49:19,15.08844767,0.0001332,53.216,274.1356,105.4163,254.6976,7.6116e-05,9.24e-06,0.0,0 STARLINK-4144,1 53257U 22086R   23264.74258151  .00000924  00000-0  76116-4 0  9990,2 53257  53.2160 274.1356 0001332 105.4163 254.6976 15.08844767 65020,6917.866,95.437,540.652,538.809,0.0
53257.0,STARLINK-4144,PAYLOAD,2023-09-22 01:46:15,15.0883862,0.0001416,53.2146,272.6496,67.3143,292.7998,0.00057014,8.797e-05,0.0,0 STARLINK-4144,1 53257U 22086R   23265.07379295  .00008797  00000-0  57014-3 0  9991,2 53257  53.2146 272.6496 0001416  67.3143 292.7998 15.08838620 65072,6917.885,95.438,540.729,538.77,0.0
53257.0,STARLINK-4144,PAYLOAD,2023-09-22 08:07:47,15.08866821,0.0001536,53.2149,271.4603,71.6635,288.4524,0.00098259,0.00015396,0.0,0 STARLINK-4144,1 53257U 22086R   23265.33874786  .00015396  00000-0  98259-3 0  9994,2 53257  53.2149 271.4603 0001536  71.6635 288.4524 15.08866821 65115,6917.798,95.436,540.726,538.601,0.0
53257.0,STARLINK-4144,PAYLOAD,2023-09-22 17:40:06,15.08865026,0.00016,53.2149,269.6776,74.5145,285.6024,0.00054422,8.39e-05,0.0,0 STARLINK-4144,1 53257U 22086R   23265.73618317  .00008390  00000-0  54422-3 0  9994,2 53257  53.2149 269.6776 0001600  74.5145 285.6024 15.08865026 65171,6917.804,95.436,540.776,538.562,0.0
53257.0,STARLINK-4144,PAYLOAD,2023-09-23 09:33:56,15.08865308,0.0001652,53.215,266.7026,78.4792,281.6385,0.00034904,5.275e-05,0.0,0 STARLINK-4144,1 53257U 22086R   23266.39857480  .00005275  00000-0  34904-3 0  9995,2 53257  53.2150 266.7026 0001652  78.4792 281.6385 15.08865308 65277,6917.803,95.436,540.811,538.525,0.0
53257.0,STARLINK-4144,PAYLOAD,2023-09-23 17:30:52,15.08853,0.000144,53.2149,265.2142,89.3375,270.7782,3.0957e-05,2.05e-06,0.0,0 STARLINK-4144,1 53257U 22086R   23266.72977443  .00000205  00000-0  30957-4 0  9997,2 53257  53.2149 265.2142 0001440  89.3375 270.7782 15.08853000 65323,6917.841,95.437,540.702,538.709,0.0
53257.0,STARLINK-4144,PAYLOAD,2023-09-24 09:24:43,15.08846774,0.0001635,53.2151,262.242,88.7109,271.407,-3.6233e-05,-8.65e-06,0.0,0 STARLINK-4144,1 53257U 22086R   23267.39217537 -.00000865  00000-0 -36233-4 0  9999,2 53257  53.2151 262.2420 0001635  88.7109 271.4070 15.08846774 65425,6917.86,95.437,540.856,538.594,0.0
53257.0,STARLINK-4144,PAYLOAD,2023-09-25 09:15:30,15.08856789,0.0001563,53.2156,257.7801,98.507,261.6099,0.00016957,2.413e-05,0.0,0 STARLINK-4144,1 53257U 22086R   23268.38576871  .00002413  00000-0  16957-3 0  9997,2 53257  53.2156 257.7801 0001563  98.5070 261.6099 15.08856789 65753,6917.829,95.436,540.775,538.613,0.0
53257.0,STARLINK-4144,PAYLOAD,2023-09-26 02:44:45,15.08850194,0.0001689,53.2148,254.5086,98.2923,261.8261,0.00025813,3.824e-05,0.0,0 STARLINK-4144,1 53257U 22086R   23269.11441049  .00003824  00000-0  25813-3 0  9995,2 53257  53.2148 254.5086 0001689  98.2923 261.8261 15.08850194 65686,6917.849,95.437,540.883,538.546,0.0
53257.0,STARLINK-4144,PAYLOAD,2023-09-26 09:06:17,15.0885534,0.0001538,53.2153,253.3198,97.2125,262.9042,0.00028752,4.293e-05,0.0,0 STARLINK-4144,1 53257U 22086R   23269.37936622  .00004293  00000-0  28752-3 0  9995,2 53257  53.2153 253.3198 0001538  97.2125 262.9042 15.08855340 65901,6917.834,95.437,540.762,538.635,0.0
53257.0,STARLINK-4144,PAYLOAD,2023-09-26 23:24:46,15.08836891,0.0001647,53.2154,250.6423,106.8399,253.2774,-8.8846e-05,-1.702e-05,0.0,0 STARLINK-4144,1 53257U 22086R   23269.97553339 -.00001702  00000-0 -88846-4 0  9996,2 53257  53.2154 250.6423 0001647 106.8399 253.2774 15.08836891 65819,6917.89,95.438,540.894,538.616,0.0
53257.0,STARLINK-4144,PAYLOAD,2023-09-27 05:46:18,15.0884021,0.0001319,53.2147,249.4555,92.7919,267.3224,-1.8704e-05,-5.86e-06,0.0,0 STARLINK-4144,1 53257U 22086R   23270.24049232 -.00000586  00000-0 -18704-4 0  9995,2 53257  53.2147 249.4555 0001319  92.7919 267.3224 15.08840210 66031,6917.88,95.438,540.657,538.832,0.0
53257.0,STARLINK-4144,PAYLOAD,2023-09-28 02:26:20,15.08828453,0.0001478,53.2161,245.5924,99.5573,260.5586,-3.4051e-05,-8.3e-06,0.0,0 STARLINK-4144,1 53257U 22086R   23271.10162187 -.00000830  00000-0 -34051-4 0  9991,2 53257  53.2161 245.5924 0001478  99.5573 260.5586 15.08828453 65985,6917.916,95.438,540.803,538.758,0.0
53257.0,STARLINK-4144,PAYLOAD,2023-09-28 07:12:29,15.08841478,0.0001415,53.2156,244.6946,92.6861,267.4293,0.00018402,2.642e-05,0.0,0 STARLINK-4144,1 53257U 22086R   23271.30033647  .00002642  00000-0  18402-3 0  9993,2 53257  53.2156 244.6946 0001415  92.6861 267.4293 15.08841478 66016,6917.876,95.437,540.72,538.762,0.0
53257.0,STARLINK-4144,PAYLOAD,2023-09-29 07:03:16,15.08834627,0.0001429,53.2166,240.2343,93.3315,266.7841,0.00011822,1.594e-05,0.0,0 STARLINK-4144,1 53257U 22086R   23272.29394566  .00001594  00000-0  11822-3 0  9996,2 53257  53.2166 240.2343 0001429  93.3315 266.7841 15.08834627 66162,6917.897,95.438,540.75,538.773,0.0
53257.0,STARLINK-4144,PAYLOAD,2023-09-30 03:43:17,15.0884999,0.0001463,53.216,236.3695,83.308,276.8079,0.00025636,3.795e-05,0.0,0 STARLINK-4144,1 53257U 22086R   23273.15506018  .00003795  00000-0  25636-3 0  9992,2 53257  53.2160 236.3695 0001463  83.3080 276.8079 15.08849990 66296,6917.85,95.437,540.727,538.703,0.0
53257.0,STARLINK-4144,PAYLOAD,2023-09-30 05:18:40,15.08853561,0.0001546,53.2167,236.0735,77.4892,282.6273,0.00032465,4.884e-05,0.0,0 STARLINK-4144,1 53257U 22086R   23273.22129913  .00004884  00000-0  32465-3 0  9993,2 53257  53.2167 236.0735 0001546  77.4892 282.6273 15.08853561 66483,6917.839,95.437,540.773,538.634,0.0
53257.0,STARLINK-4144,PAYLOAD,2023-09-30 14:50:59,15.08838401,0.0001736,53.2175,234.2874,77.9166,282.202,2.971e-05,1.85e-06,0.0,0 STARLINK-4144,1 53257U 22086R   23273.61874545  .00000185  00000-0  29710-4 0  9994,2 53257  53.2175 234.2874 0001736  77.9166 282.2020 15.08838401 66365,6917.885,95.438,540.951,538.549,0.0
53257.0,STARLINK-4144,PAYLOAD,2023-10-01 03:34:04,15.08837854,0.0001349,53.2151,231.9106,83.9869,276.1276,1.383e-05,-6.8e-07,0.0,0 STARLINK-4144,1 53257U 22086R   23274.14866507 -.00000068  00000-0  13830-4 0  9999,2 53257  53.2151 231.9106 0001349  83.9869 276.1276 15.08837854 66623,6917.887,95.438,540.685,538.819,0.0
